[{"OBJECT_NAME":"STARLINK-34708","OBJECT_ID":"2025-165G","EPOCH":"2026-03-09T17:09:33.266304","MEAN_MOTION":15.05666348,"ECCENTRICITY":0.00012979,"INCLINATION":97.6013,"RA_OF_ASC_NODE":147.2452,"ARG_OF_PERICENTER":85.8737,"MEAN_ANOMALY":274.2639,"EPHEMERIS_TYPE":0,"CLASSIFICATION_TYPE":"U","NORAD_CAT_ID":65062,"ELEMENT_SET_NO":999,"REV_AT_EPOCH":3479,"BSTAR":0.0013605964,"MEAN_MOTION_DOT":0.00019634,"MEAN_MOTION_DDOT":0},{"OBJECT_NAME":"COSMOS 2251 DEB","OBJECT_ID":"1993-036BKG","EPOCH":"2026-03-09T09:02:46.626720","MEAN_MOTION":15.0055284,"ECCENTRICITY":0.00290136,"INCLINATION":74.0178,"RA_OF_ASC_NODE":205.5033,"ARG_OF_PERICENTER":262.6992,"MEAN_ANOMALY":97.0897,"EPHEMERIS_TYPE":0,"CLASSIFICATION_TYPE":"U","NORAD_CAT_ID":37316,"ELEMENT_SET_NO":999,"REV_AT_EPOCH":87440,"BSTAR":0.002851028,"MEAN_MOTION_DOT":0.00036448,"MEAN_MOTION_DDOT":0}]
